<?xml version="1.0" encoding="UTF-8" standalone="yes"?>
<ndm>
    <oem id="CCSDS_OEM_VERS" version="2.0">
        <header>
            <CREATION_DATE>2022-019T19:57:00.817Z</CREATION_DATE>
            <ORIGINATOR>JSC</ORIGINATOR>
        </header>
        <body>
            <segment>
                <metadata>
                    <OBJECT_NAME>ISS</OBJECT_NAME>
                    <OBJECT_ID>1998-067-A</OBJECT_ID>
                    <CENTER_NAME>EARTH</CENTER_NAME>
                    <REF_FRAME>EME2000</REF_FRAME>
                    <TIME_SYSTEM>UTC</TIME_SYSTEM>
                    <START_TIME>2022-019T12:00:00.000Z</START_TIME>
                    <STOP_TIME>2022-034T12:00:00.000Z</STOP_TIME>
                </metadata>
                <data>
                    <COMMENT>Units are in kg and m^2</COMMENT>
                    <COMMENT>MASS=458943.00</COMMENT>
                    <COMMENT>DRAG_AREA=1606.80</COMMENT>
                    <COMMENT>DRAG_COEFF=2.20</COMMENT>
                    <COMMENT>SOLAR_RAD_AREA=0.00</COMMENT>
                    <COMMENT>SOLAR_RAD_COEFF=0.00</COMMENT>
                    <COMMENT>Orbits start at the ascending node epoch </COMMENT>
                    <COMMENT>ISS first asc. node: EPOCH = 2022-01-19T13:10:14.115 $ ORBIT = 212 $ LAN(DEG) = 36.20254</COMMENT>
                    <COMMENT>ISS last asc. node : EPOCH = 2022-02-03T10:41:33.768 $ ORBIT = 443 $ LAN(DEG) = -15.06715</COMMENT>
                    <COMMENT>Begin sequence of events</COMMENT>
                    <COMMENT>TRAJECTORY EVENT SUMMARY:</COMMENT>
                    <COMMENT></COMMENT>
                    <COMMENT>|       EVENT        |       TIG        | ORB |   DV    |   HA    |   HP    |</COMMENT>
                    <COMMENT>|                    |       GMT        |     |   M/S   |   KM    |   KM    |</COMMENT>
                    <COMMENT>|                    |                  |     |  (F/S)  |  (NM)   |  (NM)   |</COMMENT>
                    <COMMENT>=============================================================================</COMMENT>
                    <COMMENT> SpX-24 Undock         021:15:35:00.000             0.0     427.4     408.1</COMMENT>
                    <COMMENT>                                                   (0.0)   (230.8)   (220.4)</COMMENT>
                    <COMMENT></COMMENT>
                    <COMMENT>=============================================================================</COMMENT>
                    <COMMENT>End sequence of events</COMMENT>
                    <stateVector>
                        <EPOCH>2022-020T17:28:00.000Z</EPOCH>
                        <X units="km">-348.70845635030201</X>
                        <Y units="km">4330.6504355898396</Y>
                        <Z units="km">5213.9951422032</Z>
                        <X_DOT units="km/s">-7.5292514035871303</X_DOT>
                        <Y_DOT units="km/s">0.82599823499436997</Y_DOT>
                        <Z_DOT units="km/s">-1.1810488180002401</Z_DOT>
                    </stateVector>
                    <stateVector>
                        <EPOCH>2022-020T17:32:00.000Z</EPOCH>
                        <X units="km">-2121.0638180338501</X>
                        <Y units="km">4368.8743914487204</Y>
                        <Z units="km">4743.7096863840798</Z>
                        <X_DOT units="km/s">-7.1501491330098803</X_DOT>
                        <Y_DOT units="km/s">-0.50937857980361001</Y_DOT>
                        <Z_DOT units="km/s">-2.7139430909928901</Z_DOT>
                    </stateVector>
                    <stateVector>
                        <EPOCH>2022-020T17:36:00.000Z</EPOCH>
                        <X units="km">-3739.0542290355402</X>
                        <Y units="km">4089.13048479192</Y>
                        <Z units="km">3927.1962249091498</Z>
                        <X_DOT units="km/s">-6.2507400191628797</X_DOT>
                        <Y_DOT units="km/s">-1.8075735798624299</Y_DOT>
                        <Z_DOT units="km/s">-4.0486414455826401</Z_DOT>
                    </stateVector>
                    <stateVector>
                        <EPOCH>2022-020T17:40:00.000Z</EPOCH>
                        <X units="km">-5084.9442895087795</X>
                        <Y units="km">3511.7920435343899</Y>
                        <Z units="km">2824.0632549627999</Z>
                        <X_DOT units="km/s">-4.8965200771491801</X_DOT>
                        <Y_DOT units="km/s">-2.9741674567521601</Y_DOT>
                        <Z_DOT units="km/s">-5.0877962314128604</Z_DOT>
                    </stateVector>
                    <stateVector>
                        <EPOCH>2022-020T17:44:00.000Z</EPOCH>
                        <X units="km">-6060.8392648702102</X>
                        <Y units="km">2678.9078843317102</Y>
                        <Z units="km">1514.84380493667</Z>
                        <X_DOT units="km/s">-3.18638290001189</X_DOT>
                        <Y_DOT units="km/s">-3.9240747257834299</Y_DOT>
                        <Z_DOT units="km/s">-5.7554973436104904</Z_DOT>
                    </stateVector>
                    <stateVector>
                        <EPOCH>2022-020T17:48:00.000Z</EPOCH>
                        <X units="km">-6595.9094876750896</X>
                        <Y units="km">1651.1651686375801</Y>
                        <Z units="km">95.114542553969301</Z>
                        <X_DOT units="km/s">-1.24558293113159</X_DOT>
                        <Y_DOT units="km/s">-4.5880814004951702</Y_DOT>
                        <Z_DOT units="km/s">-6.0031230017794597</Z_DOT>
                    </stateVector>
                    <stateVector>
                        <EPOCH>2022-020T17:52:00.000Z</EPOCH>
                        <X units="km">-6651.6223478755401</X>
                        <Y units="km">503.40904659097799</Y>
                        <Z units="km">-1331.5642191382401</Z>
                        <X_DOT units="km/s">0.78372472310232999</X_DOT>
                        <Y_DOT units="km/s">-4.9181661710778499</Y_DOT>
                        <Z_DOT units="km/s">-5.8132002042415296</Z_DOT>
                    </stateVector>
                    <stateVector>
                        <EPOCH>2022-020T17:56:00.000Z</EPOCH>
                        <X units="km">-6224.5058463033502</X>
                        <Y units="km">-680.908582917025</Y>
                        <Z units="km">-2661.3289990735502</Z>
                        <X_DOT units="km/s">2.75341431394477</X_DOT>
                        <Y_DOT units="km/s">-4.89106084496383</Y_DOT>
                        <Z_DOT units="km/s">-5.2006567164229898</Z_DOT>
                    </stateVector>
                    <stateVector>
                        <EPOCH>2022-020T18:00:00.000Z</EPOCH>
                        <X units="km">-5346.2170752879601</X>
                        <Y units="km">-1815.8962030180801</Y>
                        <Z units="km">-3797.6612118457801</Z>
                        <X_DOT units="km/s">4.5207189636958196</X_DOT>
                        <Y_DOT units="km/s">-4.5097629510064801</Y_DOT>
                        <Z_DOT units="km/s">-4.2112893625268404</Z_DOT>
                    </stateVector>
                    <stateVector>
                        <EPOCH>2022-020T18:04:00.000Z</EPOCH>
                        <X units="km">-4080.9776076665898</X>
                        <Y units="km">-2819.4786221701802</Y>
                        <Z units="km">-4658.3610686211096</Z>
                        <X_DOT units="km/s">5.9586341624745804</X_DOT>
                        <Y_DOT units="km/s">-3.8027875188860198</Y_DOT>
                        <Z_DOT units="km/s">-2.9178003292422301</Z_DOT>
                    </stateVector>
                    <stateVector>
                        <EPOCH>2022-020T18:08:00.000Z</EPOCH>
                        <X units="km">-2520.7118106189</X>
                        <Y units="km">-3619.2529874765301</Y>
                        <Z units="km">-5181.3499479967804</Z>
                        <X_DOT units="km/s">6.9646090214380996</X_DOT>
                        <Y_DOT units="km/s">-2.8216802658461901</Y_DOT>
                        <Z_DOT units="km/s">-1.4140944295365501</Z_DOT>
                    </stateVector>
                    <stateVector>
                        <EPOCH>2022-020T18:12:00.000Z</EPOCH>
                        <X units="km">-778.33266486034699</X>
                        <Y units="km">-4157.5602520984503</Y>
                        <Z units="km">-5328.9454827084401</Z>
                        <X_DOT units="km/s">7.4671795814537898</X_DOT>
                        <Y_DOT units="km/s">-1.6369878257427</Y_DOT>
                        <Z_DOT units="km/s">0.19163863732233999</Z_DOT>
                    </stateVector>
                    <stateVector>
                        <EPOCH>2022-020T18:16:00.000Z</EPOCH>
                        <X units="km">1020.27549961482</X>
                        <Y units="km">-4395.4706790946502</Y>
                        <Z units="km">-5090.4129750489501</Z>
                        <X_DOT units="km/s">7.4302794385347797</X_DOT>
                        <Y_DOT units="km/s">-0.33337626746316001</Y_DOT>
                        <Z_DOT units="km/s">1.78427283437336</Z_DOT>
                    </stateVector>
                    
                </data>
            </segment>
        </body>
    </oem>
</ndm>
